GPS_BIIF-1 -PRN-25
1 36585U 10022A   23124.14099330 -.00000015  00000+0  00000+0 0  9998
2 36585  54.6233 254.5638 0109384  59.4972 256.1593  2.00555557 94723
